{"type": "FeatureCollection", "features": [ {"type": "Feature", "properties": {"norad_id": 37996, "name": "COSMOS 2251 DEB", "group": "cosmos-2251-debris", "lat": -36.904956327586646, "lon": 38.8783416943748, "alt_km": 884.1636557136762, "timestamp": "2025-12-10T20:49:52.950614+00:00", "meta": {"OBJECT_NAME": "COSMOS 2251 DEB", "OBJECT_ID": "1993-036BQX", "EPOCH": "2025-11-16T18:35:00.708864", "MEAN_MOTION": 14.09591608, "ECCENTRICITY": 0.02219827, "INCLINATION": 74.0658, "RA_OF_ASC_NODE": 248.8308, "ARG_OF_PERICENTER": 5.4709, "MEAN_ANOMALY": 354.8776, "EPHEMERIS_TYPE": 0, "CLASSIFICATION_TYPE": "U", "NORAD_CAT_ID": 37996, "ELEMENT_SET_NO": 999, "REV_AT_EPOCH": 55769, "BSTAR": 0.0096790999, "MEAN_MOTION_DOT": 0.00021331, "MEAN_MOTION_DDOT": 0}, "tle": {"line1": "1 37996U 93036BQX 25320.77431376  .00021331  00000+0  96791-2 0  9998", "line2": "2 37996  74.0658 248.8308 0221982   5.4709 354.8776 14.09591608557693"}}, "geometry": {"type": "Point", "coordinates": [38.8783416943748, -36.904956327586646]}}, {"type": "Feature", "properties": {"norad_id": 37998, "name": "COSMOS 2251 DEB", "group": "cosmos-2251-debris", "lat": -21.295397863796445, "lon": -127.8094665836106, "alt_km": 732.5741270149783, "timestamp": "2025-12-10T20:49:52.950624+00:00", "meta": {"OBJECT_NAME": "COSMOS 2251 DEB", "OBJECT_ID": "1993-036BQZ", "EPOCH": "2025-12-07T01:34:33.386016", "MEAN_MOTION": 14.45444842, "ECCENTRICITY": 0.00199405, "INCLINATION": 74.0387, "RA_OF_ASC_NODE": 245.6796, "ARG_OF_PERICENTER": 320.6712, "MEAN_ANOMALY": 39.2997, "EPHEMERIS_TYPE": 0, "CLASSIFICATION_TYPE": "U", "NORAD_CAT_ID": 37998, "ELEMENT_SET_NO": 999, "REV_AT_EPOCH": 64205, "BSTAR": 0.00093558552, "MEAN_MOTION_DOT": 3.277e-05, "MEAN_MOTION_DDOT": 0}, "tle": {"line1": "1 37998U 93036BQZ 25341.06566419  .00003277  00000+0  93559-3 0  9991", "line2": "2 37998  74.0387 245.6796 0019940 320.6712  39.2997 14.45444842642056"}}, "geometry": {"type": "Point", "coordinates": [-127.8094665836106, -21.295397863796445]}}, {"type": "Feature", "properties": {"norad_id": 38001, "name": "COSMOS 2251 DEB", "group": "cosmos-2251-debris", "lat": 64.3119114706694, "lon": 172.6375132211562, "alt_km": 662.7226525003935, "timestamp": "2025-12-10T20:49:52.950634+00:00", "meta": {"OBJECT_NAME": "COSMOS 2251 DEB", "OBJECT_ID": "1993-036BRC", "EPOCH": "2025-12-09T17:00:16.350912", "MEAN_MOTION": 14.79018783, "ECCENTRICITY": 0.00654872, "INCLINATION": 74.0007, "RA_OF_ASC_NODE": 138.302, "ARG_OF_PERICENTER": 288.3389, "MEAN_ANOMALY": 89.9647, "EPHEMERIS_TYPE": 0, "CLASSIFICATION_TYPE": "U", "NORAD_CAT_ID": 38001, "ELEMENT_SET_NO": 999, "REV_AT_EPOCH": 74663, "BSTAR": 0.001203292, "MEAN_MOTION_DOT": 9.198e-05, "MEAN_MOTION_DDOT": 0}, "tle": {"line1": "1 38001U 93036BRC 25343.70852258  .00009198  00000+0  12033-2 0  9994", "line2": "2 38001  74.0007 138.3020 0065487 288.3389  89.9647 14.79018783746637"}}, "geometry": {"type": "Point", "coordinates": [172.6375132211562, 64.3119114706694]}}, {"type": "Feature", "properties": {"norad_id": 38006, "name": "COSMOS 2251 DEB", "group": "cosmos-2251-debris", "lat": 43.81774010757379, "lon": -154.53578973284672, "alt_km": 780.1604131743397, "timestamp": "2025-12-10T20:49:52.950644+00:00", "meta": {"OBJECT_NAME": "COSMOS 2251 DEB", "OBJECT_ID": "1993-036BRH", "EPOCH": "2025-12-10T03:36:37.956384", "MEAN_MOTION": 14.45867865, "ECCENTRICITY": 0.00758537, "INCLINATION": 73.8744, "RA_OF_ASC_NODE": 42.933, "ARG_OF_PERICENTER": 348.3853, "MEAN_ANOMALY": 11.555, "EPHEMERIS_TYPE": 0, "CLASSIFICATION_TYPE": "U", "NORAD_CAT_ID": 38006, "ELEMENT_SET_NO": 999, "REV_AT_EPOCH": 62922, "BSTAR": 0.0047338847, "MEAN_MOTION_DOT": 0.00017443, "MEAN_MOTION_DDOT": 0}, "tle": {"line1": "1 38006U 93036BRH 25344.15043931  .00017443  00000+0  47339-2 0  9998", "line2": "2 38006  73.8744  42.9330 0075853 348.3853  11.5550 14.45867865629227"}}, "geometry": {"type": "Point", "coordinates": [-154.53578973284672, 43.81774010757379]}}, {"type": "Feature", "properties": {"norad_id": 38054, "name": "COSMOS 2251 DEB", "group": "cosmos-2251-debris", "lat": 73.8761312984262, "lon": 4.475237729412661, "alt_km": 1261.4308153709962, "timestamp": "2025-12-10T20:49:52.950654+00:00", "meta": {"OBJECT_NAME": "COSMOS 2251 DEB", "OBJECT_ID": "1993-036BRL", "EPOCH": "2025-12-06T19:35:06.065952", "MEAN_MOTION": 13.62293123, "ECCENTRICITY": 0.0360398, "INCLINATION": 73.9587, "RA_OF_ASC_NODE": 275.4844, "ARG_OF_PERICENTER": 254.7432, "MEAN_ANOMALY": 133.9151, "EPHEMERIS_TYPE": 0, "CLASSIFICATION_TYPE": "U", "NORAD_CAT_ID": 38054, "ELEMENT_SET_NO": 999, "REV_AT_EPOCH": 67099, "BSTAR": 0.0049752628, "MEAN_MOTION_DOT": 5.934e-05, "MEAN_MOTION_DDOT": 0}, "tle": {"line1": "1 38054U 93036BRL 25340.81604243  .00005934  00000+0  49753-2 0  9993", "line2": "2 38054  73.9587 275.4844 0360398 254.7432 133.9151 13.62293123670997"}}, "geometry": {"type": "Point", "coordinates": [4.475237729412661, 73.8761312984262]}}, {"type": "Feature", "properties": {"norad_id": 38055, "name": "COSMOS 2251 DEB", "group": "cosmos-2251-debris", "lat": -25.465411892962024, "lon": -157.41661982359716, "alt_km": 598.3125295534983, "timestamp": "2025-12-10T20:49:52.950664+00:00", "meta": {"OBJECT_NAME": "COSMOS 2251 DEB", "OBJECT_ID": "1993-036BRM", "EPOCH": "2025-12-10T08:27:42.055776", "MEAN_MOTION": 14.76933211, "ECCENTRICITY": 0.00657477, "INCLINATION": 74.0087, "RA_OF_ASC_NODE": 211.4445, "ARG_OF_PERICENTER": 339.5149, "MEAN_ANOMALY": 134.8402, "EPHEMERIS_TYPE": 0, "CLASSIFICATION_TYPE": "U", "NORAD_CAT_ID": 38055, "ELEMENT_SET_NO": 999, "REV_AT_EPOCH": 60647, "BSTAR": 0.0011717243, "MEAN_MOTION_DOT": 8.521e-05, "MEAN_MOTION_DDOT": 0}, "tle": {"line1": "1 38055U 93036BRM 25344.35257009  .00008521  00000+0  11717-2 0  9995", "line2": "2 38055  74.0087 211.4445 0065747 339.5149 134.8402 14.76933211606475"}}, "geometry": {"type": "Point", "coordinates": [-157.41661982359716, -25.465411892962024]}}, {"type": "Feature", "properties": {"norad_id": 38060, "name": "COSMOS 2251 DEB", "group": "cosmos-2251-debris", "lat": -67.39028743160358, "lon": -104.49633381451471, "alt_km": 707.4800758431502, "timestamp": "2025-12-10T20:49:52.950674+00:00", "meta": {"OBJECT_NAME": "COSMOS 2251 DEB", "OBJECT_ID": "1993-036BRS", "EPOCH": "2025-12-08T15:02:26.401344", "MEAN_MOTION": 14.63819883, "ECCENTRICITY": 0.0057903, "INCLINATION": 74.0428, "RA_OF_ASC_NODE": 303.2001, "ARG_OF_PERICENTER": 50.388, "MEAN_ANOMALY": 310.2378, "EPHEMERIS_TYPE": 0, "CLASSIFICATION_TYPE": "U", "NORAD_CAT_ID": 38060, "ELEMENT_SET_NO": 999, "REV_AT_EPOCH": 71904, "BSTAR": 0.0010404, "MEAN_MOTION_DOT": 5.538e-05, "MEAN_MOTION_DDOT": 0}, "tle": {"line1": "1 38060U 93036BRS 25342.62669446  .00005538  00000+0  10404-2 0  9998", "line2": "2 38060  74.0428 303.2001 0057903  50.3880 310.2378 14.63819883719047"}}, "geometry": {"type": "Point", "coordinates": [-104.49633381451471, -67.39028743160358]}}, {"type": "Feature", "properties": {"norad_id": 38062, "name": "COSMOS 2251 DEB", "group": "cosmos-2251-debris", "lat": 44.04314702336873, "lon": -49.64425276701509, "alt_km": 571.2061636325152, "timestamp": "2025-12-10T20:49:52.950683+00:00", "meta": {"OBJECT_NAME": "COSMOS 2251 DEB", "OBJECT_ID": "1993-036BRU", "EPOCH": "2025-12-06T04:12:38.753856", "MEAN_MOTION": 14.94290132, "ECCENTRICITY": 0.00122346, "INCLINATION": 74.0094, "RA_OF_ASC_NODE": 303.7202, "ARG_OF_PERICENTER": 72.1633, "MEAN_ANOMALY": 298.7726, "EPHEMERIS_TYPE": 0, "CLASSIFICATION_TYPE": "U", "NORAD_CAT_ID": 38062, "ELEMENT_SET_NO": 999, "REV_AT_EPOCH": 62932, "BSTAR": 0.0035053507, "MEAN_MOTION_DOT": 0.00037877, "MEAN_MOTION_DDOT": 0}, "tle": {"line1": "1 38062U 93036BRU 25340.17544854  .00037877  00000+0  35054-2 0  9992", "line2": "2 38062  74.0094 303.7202 0012234  72.1633 298.7726 14.94290132629324"}}, "geometry": {"type": "Point", "coordinates": [-49.64425276701509, 44.04314702336873]}}, {"type": "Feature", "properties": {"norad_id": 38064, "name": "COSMOS 2251 DEB", "group": "cosmos-2251-debris", "lat": -42.24273920543694, "lon": -37.227111586160696, "alt_km": 680.5002192147258, "timestamp": "2025-12-10T20:49:52.950693+00:00", "meta": {"OBJECT_NAME": "COSMOS 2251 DEB", "OBJECT_ID": "1993-036BRW", "EPOCH": "2025-12-08T19:59:17.678400", "MEAN_MOTION": 14.56247306, "ECCENTRICITY": 0.00475278, "INCLINATION": 74.0223, "RA_OF_ASC_NODE": 131.5539, "ARG_OF_PERICENTER": 251.7836, "MEAN_ANOMALY": 107.8151, "EPHEMERIS_TYPE": 0, "CLASSIFICATION_TYPE": "U", "NORAD_CAT_ID": 38064, "ELEMENT_SET_NO": 999, "REV_AT_EPOCH": 71808, "BSTAR": 0.0016943453, "MEAN_MOTION_DOT": 7.589e-05, "MEAN_MOTION_DDOT": 0}, "tle": {"line1": "1 38064U 93036BRW 25342.83284350  .00007589  00000+0  16943-2 0  9994", "line2": "2 38064  74.0223 131.5539 0047527 251.7836 107.8151 14.56247306718080"}}, "geometry": {"type": "Point", "coordinates": [-37.227111586160696, -42.24273920543694]}}, {"type": "Feature", "properties": {"norad_id": 38067, "name": "COSMOS 2251 DEB", "group": "cosmos-2251-debris", "lat": 6.673447537827168, "lon": 96.16327351298659, "alt_km": 705.0055727041599, "timestamp": "2025-12-10T20:49:52.950703+00:00", "meta": {"OBJECT_NAME": "COSMOS 2251 DEB", "OBJECT_ID": "1993-036BRZ", "EPOCH": "2025-12-10T12:23:14.076960", "MEAN_MOTION": 14.61112696, "ECCENTRICITY": 0.00693453, "INCLINATION": 74.0167, "RA_OF_ASC_NODE": 278.7582, "ARG_OF_PERICENTER": 67.0924, "MEAN_ANOMALY": 55.1724, "EPHEMERIS_TYPE": 0, "CLASSIFICATION_TYPE": "U", "NORAD_CAT_ID": 38067, "ELEMENT_SET_NO": 999, "REV_AT_EPOCH": 62523, "BSTAR": 0.00060560442, "MEAN_MOTION_DOT": 3.051e-05, "MEAN_MOTION_DDOT": 0}, "tle": {"line1": "1 38067U 93036BRZ 25344.51613515  .00003051  00000+0  60560-3 0  9998", "line2": "2 38067  74.0167 278.7582 0069345  67.0924  55.1724 14.61112696625234"}}, "geometry": {"type": "Point", "coordinates": [96.16327351298659, 6.673447537827168]}}]}